{
    "links": {
        "self": "http://www.neowsapp.com/rest/v1/neo/3263791?api_key=iIulBulltgU6a56xZRHN4H3l9WmuAYTsLGpBGhQ2"
    },
    "id": "3263791",
    "neo_reference_id": "3263791",
    "name": "(2004 XC51)",
    "designation": "2004 XC51",
    "nasa_jpl_url": "http://ssd.jpl.nasa.gov/sbdb.cgi?sstr=3263791",
    "absolute_magnitude_h": 19.9,
    "estimated_diameter": {
        "kilometers": {
            "estimated_diameter_min": 0.2783267681,
            "estimated_diameter_max": 0.6223575734
        },
        "meters": {
            "estimated_diameter_min": 278.3267680719,
            "estimated_diameter_max": 622.3575733667
        },
        "miles": {
            "estimated_diameter_min": 0.1729441822,
            "estimated_diameter_max": 0.3867149477
        },
        "feet": {
            "estimated_diameter_min": 913.1455937611,
            "estimated_diameter_max": 2041.8556210042
        }
    },
    "is_potentially_hazardous_asteroid": false,
    "close_approach_data": [
        {
            "close_approach_date": "2004-12-18",
            "close_approach_date_full": "2004-Dec-18 10:22",
            "epoch_date_close_approach": 1103365320000,
            "relative_velocity": {
                "kilometers_per_second": "24.3396845593",
                "kilometers_per_hour": "87622.8644133608",
                "miles_per_hour": "54445.4403906241"
            },
            "miss_distance": {
                "astronomical": "0.2686789593",
                "lunar": "104.5161151677",
                "kilometers": "40193800.025096691",
                "miles": "24975269.2169726958"
            },
            "orbiting_body": "Earth"
        }
    ],
    "orbital_data": {
        "orbit_id": "9",
        "orbit_determination_date": "2017-04-06 09:11:43",
        "first_observation_date": "2004-12-14",
        "last_observation_date": "2004-12-23",
        "data_arc_in_days": 9,
        "observations_used": 44,
        "orbit_uncertainty": "9",
        "minimum_orbit_intersection": ".104823",
        "jupiter_tisserand_invariant": "3.194",
        "epoch_osculation": "2453354.5",
        "eccentricity": ".7331927073945379",
        "semi_major_axis": "2.050162087127224",
        "inclination": "39.75570057419081",
        "ascending_node_longitude": "252.4116873366669",
        "orbital_period": "1072.212149189789",
        "perihelion_distance": ".5469981958687782",
        "perihelion_argument": "284.8676635649978",
        "aphelion_distance": "3.55332597838567",
        "perihelion_time": "2453414.148734499233",
        "mean_anomaly": "339.9726719791879",
        "mean_motion": ".3357544495947298",
        "equinox": "J2000",
        "orbit_class": {
            "orbit_class_type": "APO",
            "orbit_class_description": "Near-Earth asteroid orbits which cross the Earth’s orbit similar to that of 1862 Apollo",
            "orbit_class_range": "a (semi-major axis) > 1.0 AU; q (perihelion) < 1.017 AU"
        }
    },
    "is_sentry_object": false
}